[{"OBJECT_NAME":"STARLINK-3343","OBJECT_ID":"2022-001V","EPOCH":"2026-03-09T13:04:03.021888","MEAN_MOTION":15.08848779,"ECCENTRICITY":8.765e-5,"INCLINATION":53.2169,"RA_OF_ASC_NODE":169.7745,"ARG_OF_PERICENTER":121.0402,"MEAN_ANOMALY":239.0677,"EPHEMERIS_TYPE":0,"CLASSIFICATION_TYPE":"U","NORAD_CAT_ID":50822,"ELEMENT_SET_NO":999,"REV_AT_EPOCH":23038,"BSTAR":-1.1880335e-5,"MEAN_MOTION_DOT":-4.77e-6,"MEAN_MOTION_DDOT":0},{"OBJECT_NAME":"YUNYAO-1 47","OBJECT_ID":"2025-059E","EPOCH":"2026-03-09T22:46:15.708288","MEAN_MOTION":15.10508558,"ECCENTRICITY":0.00172664,"INCLINATION":97.6066,"RA_OF_ASC_NODE":250.9227,"ARG_OF_PERICENTER":135.6694,"MEAN_ANOMALY":224.5922,"EPHEMERIS_TYPE":0,"CLASSIFICATION_TYPE":"U","NORAD_CAT_ID":63348,"ELEMENT_SET_NO":999,"REV_AT_EPOCH":5331,"BSTAR":0.00029014568,"MEAN_MOTION_DOT":4.732e-5,"MEAN_MOTION_DDOT":0}]
